ONEWEB-0171             
1 48070U 21025AE  26047.81003783  .00000338  00000+0  88970-3 0  9996
2 48070  87.9040 344.1655 0001759  82.8607 277.2722 13.13471038237811
ONEWEB-0172             
1 48071U 21025AF  26047.86589374 -.00000009  00000+0 -60299-4 0  9999
2 48071  87.9038 344.1417 0001808  84.0934 276.0401 13.13471811238717
ONEWEB-0174             
1 48072U 21025AG  26047.84727361 -.00000302  00000+0 -86135-3 0  9990
2 48072  87.9036 344.1470 0001966  77.8495 282.2854 13.13471069238033
ONEWEB-0175             
1 48073U 21025AH  26047.87774380  .00000246  00000+0  63976-3 0  9990
2 48073  87.9046 344.1148 0001597  88.8370 271.2942 13.13472003237697
ONEWEB-0177             
1 48074U 21025AJ  26047.81342010  .00000275  00000+0  71833-3 0  9999
2 48074  87.9051 344.1480 0002007  80.3967 279.7388 13.13471687237873
ONEWEB-0178             
1 48075U 21025AK  26047.83218235 -.00000113  00000+0 -34533-3 0  9992
2 48075  87.9029 344.1756 0001822  87.1946 272.9392 13.13470868237927
ONEWEB-0108             
1 48076U 21025AL  26047.86758872  .00000016  00000+0  87950-5 0  9995
2 48076  87.9047 344.1258 0001793  71.8222 288.3102 13.13470967237851
ONEWEB-0169             
1 48077U 21025AM  26047.82356880  .00000105  00000+0  25303-3 0  9996
2 48077  87.9042 344.1518 0001822  70.8335 289.2992 13.13471724236503
ONEWEB-0176             
1 48210U 21031A   26048.14123648 -.00000313  00000+0 -88000-3 0  9998
2 48210  87.9018 313.6411 0001663  81.5095 278.6223 13.14503078232541
ONEWEB-0184             
1 48211U 21031B   26047.73368804  .00000200  00000+0  50395-3 0  9997
2 48211  87.9034 313.7102 0001531 109.4774 250.6522 13.14504706232468
ONEWEB-0179             
1 48212U 21031C   26048.16105401  .00000048  00000+0  94978-4 0  9994
2 48212  87.9021 313.6291 0001959  77.2229 282.9120 13.14504765232562
ONEWEB-0180             
1 48213U 21031D   26048.11745118  .00000158  00000+0  39256-3 0  9994
2 48213  87.9026 313.6387 0001919  87.7809 272.3540 13.14504143232446
ONEWEB-0218             
1 48214U 21031E   26048.13965234 -.00000132  00000+0 -38970-3 0  9996
2 48214  87.9024 313.6336 0001874 109.6172 250.5160 13.14503829232600
ONEWEB-0209             
1 48215U 21031F   26048.12854624  .00000006  00000+0 -18480-4 0  9990
2 48215  87.9016 313.6646 0001915  81.0801 279.0545 13.14504594232607
ONEWEB-0198             
1 48216U 21031G   26047.73223659  .00000212  00000+0  53632-3 0  9990
2 48216  87.9020 313.7422 0001928  90.9992 269.1358 13.14504996232664
ONEWEB-0189             
1 48217U 21031H   26048.12537742  .00000091  00000+0  21197-3 0  9992
2 48217  87.9023 313.6402 0001867  89.4736 270.6608 13.14504357232459
ONEWEB-0196             
1 48218U 21031J   26048.17928352  .00000304  00000+0  78424-3 0  9991
2 48218  87.9018 313.6405 0001804  83.3826 276.7509 13.14504997232469
