[{"OBJECT_NAME":"ONEWEB-0171","OBJECT_ID":"2021-025AE","EPOCH":"2026-02-16T19:26:27.268512","MEAN_MOTION":13.13471038,"ECCENTRICITY":0.0001759,"INCLINATION":87.904,"RA_OF_ASC_NODE":344.1655,"ARG_OF_PERICENTER":82.8607,"MEAN_ANOMALY":277.2722,"EPHEMERIS_TYPE":0,"CLASSIFICATION_TYPE":"U","NORAD_CAT_ID":48070,"ELEMENT_SET_NO":999,"REV_AT_EPOCH":23781,"BSTAR":0.0008897,"MEAN_MOTION_DOT":3.38e-6,"MEAN_MOTION_DDOT":0},{"OBJECT_NAME":"ONEWEB-0172","OBJECT_ID":"2021-025AF","EPOCH":"2026-02-16T20:46:53.219136","MEAN_MOTION":13.13471811,"ECCENTRICITY":0.0001808,"INCLINATION":87.9038,"RA_OF_ASC_NODE":344.1417,"ARG_OF_PERICENTER":84.0934,"MEAN_ANOMALY":276.0401,"EPHEMERIS_TYPE":0,"CLASSIFICATION_TYPE":"U","NORAD_CAT_ID":48071,"ELEMENT_SET_NO":999,"REV_AT_EPOCH":23871,"BSTAR":-6.0299e-5,"MEAN_MOTION_DOT":-9.0e-8,"MEAN_MOTION_DDOT":0},{"OBJECT_NAME":"ONEWEB-0174","OBJECT_ID":"2021-025AG","EPOCH":"2026-02-16T20:20:04.439904","MEAN_MOTION":13.13471069,"ECCENTRICITY":0.0001966,"INCLINATION":87.9036,"RA_OF_ASC_NODE":344.147,"ARG_OF_PERICENTER":77.8495,"MEAN_ANOMALY":282.2854,"EPHEMERIS_TYPE":0,"CLASSIFICATION_TYPE":"U","NORAD_CAT_ID":48072,"ELEMENT_SET_NO":999,"REV_AT_EPOCH":23803,"BSTAR":-0.00086135,"MEAN_MOTION_DOT":-3.02e-6,"MEAN_MOTION_DDOT":0},{"OBJECT_NAME":"ONEWEB-0175","OBJECT_ID":"2021-025AH","EPOCH":"2026-02-16T21:03:57.064320","MEAN_MOTION":13.13472003,"ECCENTRICITY":0.0001597,"INCLINATION":87.9046,"RA_OF_ASC_NODE":344.1148,"ARG_OF_PERICENTER":88.837,"MEAN_ANOMALY":271.2942,"EPHEMERIS_TYPE":0,"CLASSIFICATION_TYPE":"U","NORAD_CAT_ID":48073,"ELEMENT_SET_NO":999,"REV_AT_EPOCH":23769,"BSTAR":0.00063976,"MEAN_MOTION_DOT":2.46e-6,"MEAN_MOTION_DDOT":0},{"OBJECT_NAME":"ONEWEB-0177","OBJECT_ID":"2021-025AJ","EPOCH":"2026-02-16T19:31:19.496640","MEAN_MOTION":13.13471687,"ECCENTRICITY":0.0002007,"INCLINATION":87.9051,"RA_OF_ASC_NODE":344.148,"ARG_OF_PERICENTER":80.3967,"MEAN_ANOMALY":279.7388,"EPHEMERIS_TYPE":0,"CLASSIFICATION_TYPE":"U","NORAD_CAT_ID":48074,"ELEMENT_SET_NO":999,"REV_AT_EPOCH":23787,"BSTAR":0.00071833,"MEAN_MOTION_DOT":2.75e-6,"MEAN_MOTION_DDOT":0},{"OBJECT_NAME":"ONEWEB-0178","OBJECT_ID":"2021-025AK","EPOCH":"2026-02-16T19:58:20.555040","MEAN_MOTION":13.13470868,"ECCENTRICITY":0.0001822,"INCLINATION":87.9029,"RA_OF_ASC_NODE":344.1756,"ARG_OF_PERICENTER":87.1946,"MEAN_ANOMALY":272.9392,"EPHEMERIS_TYPE":0,"CLASSIFICATION_TYPE":"U","NORAD_CAT_ID":48075,"ELEMENT_SET_NO":999,"REV_AT_EPOCH":23792,"BSTAR":-0.00034533,"MEAN_MOTION_DOT":-1.13e-6,"MEAN_MOTION_DDOT":0},{"OBJECT_NAME":"ONEWEB-0108","OBJECT_ID":"2021-025AL","EPOCH":"2026-02-16T20:49:19.665408","MEAN_MOTION":13.13470967,"ECCENTRICITY":0.0001793,"INCLINATION":87.9047,"RA_OF_ASC_NODE":344.1258,"ARG_OF_PERICENTER":71.8222,"MEAN_ANOMALY":288.3102,"EPHEMERIS_TYPE":0,"CLASSIFICATION_TYPE":"U","NORAD_CAT_ID":48076,"ELEMENT_SET_NO":999,"REV_AT_EPOCH":23785,"BSTAR":8.795e-6,"MEAN_MOTION_DOT":1.6e-7,"MEAN_MOTION_DDOT":0},{"OBJECT_NAME":"ONEWEB-0169","OBJECT_ID":"2021-025AM","EPOCH":"2026-02-16T19:45:56.344320","MEAN_MOTION":13.13471724,"ECCENTRICITY":0.0001822,"INCLINATION":87.9042,"RA_OF_ASC_NODE":344.1518,"ARG_OF_PERICENTER":70.8335,"MEAN_ANOMALY":289.2992,"EPHEMERIS_TYPE":0,"CLASSIFICATION_TYPE":"U","NORAD_CAT_ID":48077,"ELEMENT_SET_NO":999,"REV_AT_EPOCH":23650,"BSTAR":0.00025303,"MEAN_MOTION_DOT":1.05e-6,"MEAN_MOTION_DDOT":0},{"OBJECT_NAME":"ONEWEB-0176","OBJECT_ID":"2021-031A","EPOCH":"2026-02-17T03:23:22.831872","MEAN_MOTION":13.14503078,"ECCENTRICITY":0.0001663,"INCLINATION":87.9018,"RA_OF_ASC_NODE":313.6411,"ARG_OF_PERICENTER":81.5095,"MEAN_ANOMALY":278.6223,"EPHEMERIS_TYPE":0,"CLASSIFICATION_TYPE":"U","NORAD_CAT_ID":48210,"ELEMENT_SET_NO":999,"REV_AT_EPOCH":23254,"BSTAR":-0.00088,"MEAN_MOTION_DOT":-3.13e-6,"MEAN_MOTION_DDOT":0},{"OBJECT_NAME":"ONEWEB-0184","OBJECT_ID":"2021-031B","EPOCH":"2026-02-16T17:36:30.646656","MEAN_MOTION":13.14504706,"ECCENTRICITY":0.0001531,"INCLINATION":87.9034,"RA_OF_ASC_NODE":313.7102,"ARG_OF_PERICENTER":109.4774,"MEAN_ANOMALY":250.6522,"EPHEMERIS_TYPE":0,"CLASSIFICATION_TYPE":"U","NORAD_CAT_ID":48211,"ELEMENT_SET_NO":999,"REV_AT_EPOCH":23246,"BSTAR":0.00050395,"MEAN_MOTION_DOT":2.0e-6,"MEAN_MOTION_DDOT":0},{"OBJECT_NAME":"ONEWEB-0179","OBJECT_ID":"2021-031C","EPOCH":"2026-02-17T03:51:55.066464","MEAN_MOTION":13.14504765,"ECCENTRICITY":0.0001959,"INCLINATION":87.9021,"RA_OF_ASC_NODE":313.6291,"ARG_OF_PERICENTER":77.2229,"MEAN_ANOMALY":282.912,"EPHEMERIS_TYPE":0,"CLASSIFICATION_TYPE":"U","NORAD_CAT_ID":48212,"ELEMENT_SET_NO":999,"REV_AT_EPOCH":23256,"BSTAR":9.4978e-5,"MEAN_MOTION_DOT":4.8e-7,"MEAN_MOTION_DDOT":0},{"OBJECT_NAME":"ONEWEB-0180","OBJECT_ID":"2021-031D","EPOCH":"2026-02-17T02:49:07.781952","MEAN_MOTION":13.14504143,"ECCENTRICITY":0.0001919,"INCLINATION":87.9026,"RA_OF_ASC_NODE":313.6387,"ARG_OF_PERICENTER":87.7809,"MEAN_ANOMALY":272.354,"EPHEMERIS_TYPE":0,"CLASSIFICATION_TYPE":"U","NORAD_CAT_ID":48213,"ELEMENT_SET_NO":999,"REV_AT_EPOCH":23244,"BSTAR":0.00039256,"MEAN_MOTION_DOT":1.58e-6,"MEAN_MOTION_DDOT":0},{"OBJECT_NAME":"ONEWEB-0218","OBJECT_ID":"2021-031E","EPOCH":"2026-02-17T03:21:05.962176","MEAN_MOTION":13.14503829,"ECCENTRICITY":0.0001874,"INCLINATION":87.9024,"RA_OF_ASC_NODE":313.6336,"ARG_OF_PERICENTER":109.6172,"MEAN_ANOMALY":250.516,"EPHEMERIS_TYPE":0,"CLASSIFICATION_TYPE":"U","NORAD_CAT_ID":48214,"ELEMENT_SET_NO":999,"REV_AT_EPOCH":23260,"BSTAR":-0.0003897,"MEAN_MOTION_DOT":-1.32e-6,"MEAN_MOTION_DDOT":0},{"OBJECT_NAME":"ONEWEB-0209","OBJECT_ID":"2021-031F","EPOCH":"2026-02-17T03:05:06.395136","MEAN_MOTION":13.14504594,"ECCENTRICITY":0.0001915,"INCLINATION":87.9016,"RA_OF_ASC_NODE":313.6646,"ARG_OF_PERICENTER":81.0801,"MEAN_ANOMALY":279.0545,"EPHEMERIS_TYPE":0,"CLASSIFICATION_TYPE":"U","NORAD_CAT_ID":48215,"ELEMENT_SET_NO":999,"REV_AT_EPOCH":23260,"BSTAR":-1.848e-5,"MEAN_MOTION_DOT":6.0e-8,"MEAN_MOTION_DDOT":0},{"OBJECT_NAME":"ONEWEB-0198","OBJECT_ID":"2021-031G","EPOCH":"2026-02-16T17:34:25.241376","MEAN_MOTION":13.14504996,"ECCENTRICITY":0.0001928,"INCLINATION":87.902,"RA_OF_ASC_NODE":313.7422,"ARG_OF_PERICENTER":90.9992,"MEAN_ANOMALY":269.1358,"EPHEMERIS_TYPE":0,"CLASSIFICATION_TYPE":"U","NORAD_CAT_ID":48216,"ELEMENT_SET_NO":999,"REV_AT_EPOCH":23266,"BSTAR":0.00053632,"MEAN_MOTION_DOT":2.12e-6,"MEAN_MOTION_DDOT":0},{"OBJECT_NAME":"ONEWEB-0189","OBJECT_ID":"2021-031H","EPOCH":"2026-02-17T03:00:32.609088","MEAN_MOTION":13.14504357,"ECCENTRICITY":0.0001867,"INCLINATION":87.9023,"RA_OF_ASC_NODE":313.6402,"ARG_OF_PERICENTER":89.4736,"MEAN_ANOMALY":270.6608,"EPHEMERIS_TYPE":0,"CLASSIFICATION_TYPE":"U","NORAD_CAT_ID":48217,"ELEMENT_SET_NO":999,"REV_AT_EPOCH":23245,"BSTAR":0.00021197,"MEAN_MOTION_DOT":9.1e-7,"MEAN_MOTION_DDOT":0},{"OBJECT_NAME":"ONEWEB-0196","OBJECT_ID":"2021-031J","EPOCH":"2026-02-17T04:18:10.096128","MEAN_MOTION":13.14504997,"ECCENTRICITY":0.0001804,"INCLINATION":87.9018,"RA_OF_ASC_NODE":313.6405,"ARG_OF_PERICENTER":83.3826,"MEAN_ANOMALY":276.7509,"EPHEMERIS_TYPE":0,"CLASSIFICATION_TYPE":"U","NORAD_CAT_ID":48218,"ELEMENT_SET_NO":999,"REV_AT_EPOCH":23246,"BSTAR":0.00078424,"MEAN_MOTION_DOT":3.04e-6,"MEAN_MOTION_DDOT":0}]
